SAR-LUPE 2              
1 31797U 07030A   26156.13869998  .00001139  00000+0  23616-4 0  9995
2 31797  98.1029 259.0981 0008692 158.0800 202.0821 15.48340724 55079
SAPPHIRE                
1 39088U 13009C   26156.03145138  .00000119  00000+0  56695-4 0  9991
2 39088  98.4258 335.7762 0010016 287.0384  72.9704 14.35237184694836
PRAETORIAN SDA_602      
1 65565U 25203A   26156.02623343  .00000063  00000+0  46033-4 0  9990
2 65565  81.3040  22.0348 0005194 219.9628 140.1147 13.84341910 37013
PRAETORIAN SDA_603      
1 65566U 25203B   26155.68758287  .00000214  00000+0  18211-3 0  9992
2 65566  81.3042  22.2566 0008748 223.7267 136.3198 13.83904801 36970
PRAETORIAN SDA_604      
1 65567U 25203C   26156.06127333  .00000124  00000+0  10256-3 0  9999
2 65567  81.3062  22.3039 0004727 228.0714 132.0040 13.83046294 37004
PRAETORIAN SDA_605      
1 65568U 25203D   26156.02999134  .00000090  00000+0  71122-4 0  9994
2 65568  81.3026  22.0076 0007486 218.1203 141.9424 13.83433404 37010
PRAETORIAN SDA_606      
1 65569U 25203E   26156.01230314  .00000101  00000+0  80798-4 0  9994
2 65569  81.3063  22.2405 0005135 216.3212 143.7596 13.83406421 37007
PRAETORIAN SDA_607      
1 65570U 25203F   26156.02804420  .00000213  00000+0  17981-3 0  9999
2 65570  81.3050  21.9078 0008038 223.2323 136.8203 13.84283515 37020
PRAETORIAN SDA_608      
1 65571U 25203G   26156.00133992  .00000097  00000+0  77299-4 0  9996
2 65571  81.3015  22.0896 0005228 227.1865 132.8853 13.83815827 37005
PRAETORIAN SDA_609      
1 65572U 25203H   26156.01007576  .00000240  00000+0  20441-3 0  9992
2 65572  81.3060  22.0672 0006270 218.6997 141.3711 13.84284088 37016
PRAETORIAN SDA_610      
1 65573U 25203J   26155.98140345  .00000063  00000+0  46428-4 0  9997
2 65573  81.3016  22.0666 0005897 224.3360 135.7325 13.83851059 37007
PRAETORIAN SDA_611      
1 65574U 25203K   26155.97739903  .00000142  00000+0  11883-3 0  9995
2 65574  81.3014  22.2262 0004820 232.7002 127.3715 13.83308254 36992
PRAETORIAN SDA_612      
1 65575U 25203L   26155.98224708  .00000193  00000+0  16032-3 0  9996
2 65575  81.3036  21.8378 0008580 221.8746 138.1756 13.85037462 37023
PRAETORIAN SDA_613      
1 65576U 25203M   26155.97934490  .00000065  00000+0  48902-4 0  9992
2 65576  81.3009  22.2116 0004988 219.4797 140.5996 13.82764209 36997
PRAETORIAN SDA_614      
1 65577U 25203N   26156.04138198  .00000099  00000+0  77301-4 0  9995
2 65577  81.3023  21.8579 0006437 218.9725 141.0969 13.84777672 37030
PRAETORIAN SDA_615      
1 65578U 25203P   26156.01526903  .00000247  00000+0  21034-3 0  9994
2 65578  81.3033  21.8383 0008297 220.9210 139.1325 13.84435373 37025
PRAETORIAN SDA_616      
1 65579U 25203Q   26155.97624723  .00000228  00000+0  19687-3 0  9998
2 65579  81.3071  22.3637 0004813 229.0791 130.9949 13.83266678 36995
PRAETORIAN SDA_617      
1 65580U 25203R   26155.99681306  .00000111  00000+0  90191-4 0  9993
2 65580  81.3046  22.1774 0006685 219.3827 140.6844 13.83149955 37003
PRAETORIAN SDA_618      
1 65581U 25203S   26155.98336774  .00000180  00000+0  14923-3 0  9993
2 65581  81.3028  21.8024 0009015 223.4858 136.5589 13.84668456 37023
PRAETORIAN SDA_619      
1 65582U 25203T   26156.01169844 -.00002585  00000+0 -23463-2 0  9992
2 65582  81.3050  22.0535 0008041 219.3640 140.6932 13.83817826 37642
PRAETORIAN SDA_620      
1 65583U 25203U   26156.03804416  .00000191  00000+0  16278-3 0  9992
2 65583  81.3044  22.0493 0007228 213.6855 146.3843 13.83617346 37010
PRAETORIAN SDA_621      
1 65584U 25203V   26156.01343900  .00000106  00000+0  85204-4 0  9999
2 65584  81.3029  21.9935 0006757 213.2436 146.8296 13.83800293 37012
PRAETORIAN SDA_601      
1 65585U 25203W   26155.97849916 -.00000013  00000+0 -22350-4 0  9994
2 65585  81.3043  22.3090 0004742 233.2105 126.8617 13.83166476 36992
